[{"OBJECT_NAME":"LUSAT (LO-19)","OBJECT_ID":"1990-005G","EPOCH":"2026-03-09T14:54:14.260896","MEAN_MOTION":14.34087969,"ECCENTRICITY":0.001234,"INCLINATION":98.8938,"RA_OF_ASC_NODE":87.6461,"ARG_OF_PERICENTER":134.6824,"MEAN_ANOMALY":225.5367,"EPHEMERIS_TYPE":0,"CLASSIFICATION_TYPE":"U","NORAD_CAT_ID":20442,"ELEMENT_SET_NO":999,"REV_AT_EPOCH":88812,"BSTAR":8.4338e-5,"MEAN_MOTION_DOT":1.89e-6,"MEAN_MOTION_DDOT":0},{"OBJECT_NAME":"CZ-6A DEB","OBJECT_ID":"2024-140BC","EPOCH":"2026-03-09T14:35:05.324928","MEAN_MOTION":14.44707338,"ECCENTRICITY":0.0074976,"INCLINATION":88.8801,"RA_OF_ASC_NODE":275.1394,"ARG_OF_PERICENTER":273.607,"MEAN_ANOMALY":85.6561,"EPHEMERIS_TYPE":0,"CLASSIFICATION_TYPE":"U","NORAD_CAT_ID":60651,"ELEMENT_SET_NO":999,"REV_AT_EPOCH":8344,"BSTAR":0.00012565,"MEAN_MOTION_DOT":4.66e-6,"MEAN_MOTION_DDOT":0}]
